[{"OBJECT_NAME":"TROLL","OBJECT_ID":"2025-009BB","EPOCH":"2026-03-09T05:24:19.835712","MEAN_MOTION":15.28164315,"ECCENTRICITY":0.00018165,"INCLINATION":97.3932,"RA_OF_ASC_NODE":150.7169,"ARG_OF_PERICENTER":59.185,"MEAN_ANOMALY":300.9568,"EPHEMERIS_TYPE":0,"CLASSIFICATION_TYPE":"U","NORAD_CAT_ID":62658,"ELEMENT_SET_NO":999,"REV_AT_EPOCH":11817,"BSTAR":0.00048220305,"MEAN_MOTION_DOT":0.00013174,"MEAN_MOTION_DDOT":0},{"OBJECT_NAME":"STARLINK-33777","OBJECT_ID":"2025-093H","EPOCH":"2026-03-09T10:01:33.985344","MEAN_MOTION":15.27563587,"ECCENTRICITY":0.00011492,"INCLINATION":43.0024,"RA_OF_ASC_NODE":79.1697,"ARG_OF_PERICENTER":222.3883,"MEAN_ANOMALY":137.688,"EPHEMERIS_TYPE":0,"CLASSIFICATION_TYPE":"U","NORAD_CAT_ID":63843,"ELEMENT_SET_NO":999,"REV_AT_EPOCH":4793,"BSTAR":0.00043491744,"MEAN_MOTION_DOT":0.00011719,"MEAN_MOTION_DDOT":0}]
