TROLL                   
1 62658U 25009BB  26068.22522958  .00013174  00000+0  48220-3 0  9994
2 62658  97.3932 150.7169 0001816  59.1850 300.9568 15.28164315118170
STARLINK-33777          
1 63843U 25093H   26068.41775446  .00011719  00000+0  43492-3 0  9996
2 63843  43.0024  79.1697 0001149 222.3883 137.6880 15.27563587 47936
